{
  "norad_id": 68607,
  "name": "STARLINK-37246",
  "history": [
    {
      "epoch": "2026-04-16T20:49:21.739008Z",
      "apogee_km": 330.6843570998035,
      "perigee_km": 329.23004227731053,
      "latitude_deg": -6.740149567244943e-05,
      "longitude_deg": 147.13207278816404,
      "height_km": 333.3226143171115,
      "semi_major_axis_km": 6708.094199688557,
      "eccentricity": 0.0001084,
      "inclination_deg": 97.285,
      "raan_deg": 304.4818,
      "arg_perigee_deg": 105.311,
      "mean_anomaly_deg": 254.8277,
      "mean_motion_rev_day": 15.80170803
    }
  ]
}