STARLINK-37246          
1 68607U 26073F   26106.86761272 -.00669700  00000+0 -38848-2 0  9991
2 68607  97.2850 304.4818 0001084 105.3110 254.8277 15.80170803  1562
